CCSDS_OEM_VERS = 1.0
CREATION_DATE  = 2017-05-11T11:16:10
ORIGINATOR     = GMAT USER

META_START
OBJECT_NAME          = MOPSSat_alt_35785_km_RAAN_90_078
OBJECT_ID            = SatId
CENTER_NAME          = Earth
REF_FRAME            = EME2000
TIME_SYSTEM          = UTC
START_TIME           = 2017-01-01T00:00:00.000
USEABLE_START_TIME   = 2017-01-01T00:00:00.000
USEABLE_STOP_TIME    = 2017-01-02T00:00:00.000
STOP_TIME            = 2017-01-02T00:00:00.000
INTERPOLATION        = Lagrange
INTERPOLATION_DEGREE = 7 
META_STOP


                                                                                   

2017-01-01T15:44:10.000   3.468491300848933e+04  -2.321418229375781e+04  -6.116884203951520e+03   1.663637245564326e+00   2.567433741981159e+00  -2.933637086400323e-01
2017-01-01T15:44:20.000   3.470154016986056e+04  -2.318850179424741e+04  -6.119816216621430e+03   1.661794819411793e+00   2.568665838073717e+00  -2.930387884363171e-01
2017-01-01T15:44:30.000   3.471814890239199e+04  -2.316280898081612e+04  -6.122744979281868e+03   1.659951507495431e+00   2.569896572121614e+00  -2.927137120162501e-01
2017-01-01T15:44:40.000   3.473473919706253e+04  -2.313710386734823e+04  -6.125670490341847e+03   1.658107310808549e+00   2.571125943454899e+00  -2.923884795550024e-01
2017-01-01T15:44:50.000   3.475131104519748e+04  -2.311138646721347e+04  -6.128592748271460e+03   1.656262230307544e+00   2.572353951429277e+00  -2.920630912212354e-01
2017-01-01T15:45:00.000   3.476786443809373e+04  -2.308565679384692e+04  -6.131511751535798e+03   1.654416266953502e+00   2.573580595398353e+00  -2.917375471844376e-01
2017-01-01T15:45:10.000   3.478439936710495e+04  -2.305991486061814e+04  -6.134427498609953e+03   1.652569421702812e+00   2.574805874719926e+00  -2.914118476132694e-01
2017-01-01T15:45:20.000   3.480091582342479e+04  -2.303416068116281e+04  -6.137339987940813e+03   1.650721695530961e+00   2.576029788739933e+00  -2.910859926797589e-01
2017-01-01T15:45:30.000   3.481741379824856e+04  -2.300839426913696e+04  -6.140249217975545e+03   1.648873089414899e+00   2.577252336804433e+00  -2.907599825561923e-01
2017-01-01T15:45:40.000   3.483389328277220e+04  -2.298261563821631e+04  -6.143155187161438e+03   1.647023604332991e+00   2.578473518259517e+00  -2.904338174151054e-01
2017-01-01T15:45:50.000   3.485035426803622e+04  -2.295682480234574e+04  -6.146057893918373e+03   1.645173241282914e+00   2.579693332439759e+00  -2.901074974324401e-01
2017-01-01T15:46:00.000   3.486679674513689e+04  -2.293102177540384e+04  -6.148957336676056e+03   1.643322001257600e+00   2.580911778683858e+00  -2.897810227833007e-01
2017-01-01T15:46:10.000   3.488322070514118e+04  -2.290520657133743e+04  -6.151853513859024e+03   1.641469885254872e+00   2.582128856328330e+00  -2.894543936436547e-01
2017-01-01T15:46:20.000   3.489962613946357e+04  -2.287937920356915e+04  -6.154746423953108e+03   1.639616894234953e+00   2.583344564735448e+00  -2.891276101828387e-01
2017-01-01T15:46:30.000   3.491601303948817e+04  -2.285353968559125e+04  -6.157636065438773e+03   1.637763029163061e+00   2.584558903265219e+00  -2.888006725710701e-01
2017-01-01T15:46:40.000   3.493238139666639e+04  -2.282768803081234e+04  -6.160522436808353e+03   1.635908290998420e+00   2.585771871282637e+00  -2.884735809775090e-01
2017-01-01T15:46:50.000   3.494873120225350e+04  -2.280182425296888e+04  -6.163405536519601e+03   1.634052680723776e+00   2.586983468138151e+00  -2.881463355754642e-01
2017-01-01T15:47:00.000   3.496506244752648e+04  -2.277594836578583e+04  -6.166285363034087e+03   1.632196199321056e+00   2.588193693183818e+00  -2.878189365380996e-01
2017-01-01T15:47:10.000   3.498137512373519e+04  -2.275006038305238e+04  -6.169161914808607e+03   1.630338847776796e+00   2.589402545769675e+00  -2.874913840393923e-01
2017-01-01T15:47:20.000   3.499766922211690e+04  -2.272416031860208e+04  -6.172035190297740e+03   1.628480627080721e+00   2.590610025244823e+00  -2.871636782538814e-01
2017-01-01T15:47:30.000   3.501394473391138e+04  -2.269824818628638e+04  -6.174905187956500e+03   1.626621538223840e+00   2.591816130958543e+00  -2.868358193563336e-01
2017-01-01T15:47:40.000   3.503020165036699e+04  -2.267232399996535e+04  -6.177771906241415e+03   1.624761582197790e+00   2.593020862260742e+00  -2.865078075216242e-01
2017-01-01T15:47:50.000   3.504643996279936e+04  -2.264638777341538e+04  -6.180635343620871e+03   1.622900759988200e+00   2.594224218506309e+00  -2.861796429235714e-01
2017-01-01T15:48:00.000   3.506265966255183e+04  -2.262043952039042e+04  -6.183495498568162e+03   1.621039072579101e+00   2.595426199052185e+00  -2.858513257357098e-01
2017-01-01T15:48:10.000   3.507886074099575e+04  -2.259447925462218e+04  -6.186352369561499e+03   1.619176520952923e+00   2.596626803257374e+00  -2.855228561312926e-01
2017-01-01T15:48:20.000   3.509504318956830e+04  -2.256850698975767e+04  -6.189205955090711e+03   1.617313106086030e+00   2.597826030485755e+00  -2.851942342825032e-01
2017-01-01T15:48:30.000   3.511120699971512e+04  -2.254252273945244e+04  -6.192056253647115e+03   1.615448828955399e+00   2.599023880101830e+00  -2.848654603616326e-01
2017-01-01T15:48:40.000   3.512735216288463e+04  -2.251652651738000e+04  -6.194903263722519e+03   1.613583690539299e+00   2.600220351470299e+00  -2.845365345412001e-01
2017-01-01T15:48:50.000   3.514347867051077e+04  -2.249051833725701e+04  -6.197746983806180e+03   1.611717691819097e+00   2.601415443954787e+00  -2.842074569942716e-01
2017-01-01T15:49:00.000   3.515958651400154e+04  -2.246449821286485e+04  -6.200587412382782e+03   1.609850833780810e+00   2.602609156916984e+00  -2.838782278947327e-01
2017-01-01T15:49:10.000   3.517567568478578e+04  -2.243846615797285e+04  -6.203424547940682e+03   1.607983117409594e+00   2.603801489720126e+00  -2.835488474163167e-01
2017-01-01T15:49:20.000   3.519174617410306e+04  -2.241242218668239e+04  -6.206258388934862e+03   1.606114543714430e+00   2.604992441713411e+00  -2.832193157369594e-01
2017-01-01T15:49:30.000   3.520779797325872e+04  -2.238636631301010e+04  -6.209088933831900e+03   1.604245113698223e+00   2.606182012250911e+00  -2.828896330335247e-01
2017-01-01T15:49:40.000   3.522383107352887e+04  -2.236029855104272e+04  -6.211916181093220e+03   1.602374828368909e+00   2.607370200684517e+00  -2.825597994837641e-01
2017-01-01T15:49:50.000   3.523984546652932e+04  -2.233421891433757e+04  -6.214740129240155e+03   1.600503688696449e+00   2.608557006391298e+00  -2.822298152587316e-01
2017-01-01T15:50:00.000   3.525584114384738e+04  -2.230812741652047e+04  -6.217560776789001e+03   1.598631695655719e+00   2.609742428746203e+00  -2.818996805303483e-01
2017-01-01T15:50:10.000   3.527181809712572e+04  -2.228202407115046e+04  -6.220378122265823e+03   1.596758850216807e+00   2.610926467128273e+00  -2.815693954696903e-01
2017-01-01T15:50:20.000   3.528777631785272e+04  -2.225590889205617e+04  -6.223192164169484e+03   1.594885153369147e+00   2.612109120905114e+00  -2.812389602512468e-01
2017-01-01T15:50:30.000   3.530371579751890e+04  -2.222978189308661e+04  -6.226002900999213e+03   1.593010606103638e+00   2.613290389444484e+00  -2.809083750497640e-01
2017-01-01T15:50:40.000   3.531963652761577e+04  -2.220364308811040e+04  -6.228810331254422e+03   1.591135209412591e+00   2.614470272114207e+00  -2.805776400402381e-01
2017-01-01T15:50:50.000   3.533553849948533e+04  -2.217749249126870e+04  -6.231614453408156e+03   1.589258964307877e+00   2.615648768271023e+00  -2.802467554011138e-01
2017-01-01T15:51:00.000   3.535142170452385e+04  -2.215133011663525e+04  -6.234415265943027e+03   1.587381871796528e+00   2.616825877275686e+00  -2.799157213099835e-01
2017-01-01T15:51:10.000   3.536728613410126e+04  -2.212515597835001e+04  -6.237212767337010e+03   1.585503932890332e+00   2.618001598486994e+00  -2.795845379452783e-01
2017-01-01T15:51:20.000   3.538313177991933e+04  -2.209897009002859e+04  -6.240006956126590e+03   1.583625148563467e+00   2.619175931288328e+00  -2.792532054787956e-01
2017-01-01T15:51:30.000   3.539895863365330e+04  -2.207277246535280e+04  -6.242797830843571e+03   1.581745519794854e+00   2.620348875061105e+00  -2.789217240831700e-01
2017-01-01T15:51:40.000   3.541476668703330e+04  -2.204656311793724e+04  -6.245585390029450e+03   1.579865047558602e+00   2.621520429190796e+00  -2.785900939301875e-01
2017-01-01T15:51:50.000   3.543055593163696e+04  -2.202034206166720e+04  -6.248369632198816e+03   1.577983732848241e+00   2.622690593051570e+00  -2.782583151950593e-01
2017-01-01T15:52:00.000   3.544632635904416e+04  -2.199410931044826e+04  -6.251150555866669e+03   1.576101576658764e+00   2.623859366017752e+00  -2.779263880532539e-01
2017-01-01T15:52:10.000   3.546207796083591e+04  -2.196786487820566e+04  -6.253928159548194e+03   1.574218579986576e+00   2.625026747463751e+00  -2.775943126804896e-01
2017-01-01T15:52:20.000   3.547781072844547e+04  -2.194160877913816e+04  -6.256702441732536e+03   1.572334743847712e+00   2.626192736753014e+00  -2.772620892559460e-01
2017-01-01T15:52:30.000   3.549352465335988e+04  -2.191534102737671e+04  -6.259473400918318e+03   1.570450069253344e+00   2.627357333252976e+00  -2.769297179579452e-01
2017-01-01T15:52:40.000   3.550921972704039e+04  -2.188906163711867e+04  -6.262241035599614e+03   1.568564557219414e+00   2.628520536329144e+00  -2.765971989656511e-01
2017-01-01T15:52:50.000   3.552489594127657e+04  -2.186277062203490e+04  -6.265005344328395e+03   1.566678208724088e+00   2.629682345371362e+00  -2.762645324515651e-01
2017-01-01T15:53:00.000   3.554055328783197e+04  -2.183646799586253e+04  -6.267766325652041e+03   1.564791024750297e+00   2.630842759767531e+00  -2.759317185890289e-01
2017-01-01T15:53:10.000   3.555619175852457e+04  -2.181015377227123e+04  -6.270523978127530e+03   1.562903006276130e+00   2.632001778909587e+00  -2.755987575505305e-01
